name,latitude,longitude,parcel_own,parcel_ope,access_typ,access_sur,shore_type,restroom,showers,picnic_fac,trash_rece,water,phone,lifeguard,alt_name,sign_word,address
Kaka'ako Waterfront Park,21.294022,-157.863525,Hawaii Community Development Authority,Hawaii Community Development Authority,Vertical and Horizontal,Grass,"Rock, Cliff",Yes,Yes,Yes,Yes,Yes,No,No,Kaka'ako Waterfront Park,Kaka'ako Waterfront Park,"Family Assessment Center, 709, Kelikoi Street, Kakaako Waterfront, Kaka‘ako, Honolulu, Honolulu County, Hawaii, 96813, United States"
Kewalo Basin Park,21.291456,-157.858681,Hawaii Community Development Authority,Hawaii Community Development Authority,Vertical and Horizontal,Grass,"Rock, Cliff",Yes,Yes,Yes,Yes,Yes,No,No,Kewalo Basin Park,Kewalo Basin Park,"Kewalo Basin Net Shed, Ahui Street, Kakaako Waterfront, Kaka‘ako, Honolulu, Honolulu County, Hawaii, 96850, United States"
Ala Moana Regional Park,21.287464,-157.844997,City & County of Honolulu,City & County of Honolulu,Vertical and Horizontal,Grass,"Sand, Rock",Yes,Yes,Yes,Yes,Yes,Yes,Yes,Ala Moana Regional Park and Magic Island,Ala Moana Regional Park,"Ala Moana Park Drive, Ala Moana, Honolulu, Honolulu County, Hawaii, 96841, United States"
Duke Paoa Kahanamuku Beach Park,21.28126,-157.83716,State of Hawaii,City & County of Honolulu,Vertical and Horizontal,Paved,Sand,Yes,Yes,Yes,Yes,Yes,Yes,Yes,Hilton Hawaiian Village,"145A, Duke Paoa Kahanamuku Beach Park","Hilton Hawaiian Village, 2005, Kalia Road, Waikiki, Honolulu, Honolulu County, Hawaii, 96815, United States"
Fort Derussy,21.27817,-157.83371,United States of America,United States of America,Vertical and Horizontal,Paved,Sand,Yes,Yes,Yes,Yes,Yes,Yes,Yes,Fort Derussy,Fort Derussy,"Outrigger Waikiki Shore, 2161, Kalia Road, Waikiki, Honolulu, Honolulu County, Hawaii, 96815, United States"
Kalia Road,21.27866,-157.83204,City & County of Honolulu,City & County of Honolulu,Vertical and Horizontal,Paved,Sand,No,No,No,No,No,No,No,Kalia Road,"141A, Beach Right Of Way","Halekulani Hotel, 2199, Kalia Road, Waikiki, Honolulu, Honolulu County, Hawaii, 96815, United States"
Kuhio Beach Park,21.27019,-157.82231,State of Hawaii and City & County of Honolulu,City & County of Honolulu,Vertical and Horizontal,Paved,Sand,Yes,Yes,Yes,Yes,Yes,Yes,Yes,Waikiki,Kuhio Beach Park,"Trolley Stop, Kalākaua Avenue, Waikiki, Honolulu, Honolulu County, Hawaii, 96815, United States"
Kapi'olani Regional Park,21.27017,-157.8223,City & County of Honolulu,City & County of Honolulu,Vertical and Horizontal,Grass,Sand,Yes,Yes,Yes,Yes,Yes,Yes,Yes,Queens; Kaimana Beach,Kuhio Beach Park,"Trolley Stop, Kalākaua Avenue, Waikiki, Honolulu, Honolulu County, Hawaii, 96815, United States"
Kaimana Beach,21.26398,-157.82137,City & County of Honolulu,City & County of Honolulu,Vertical and Horizontal,Grass,Sand,Yes,Yes,Yes,Yes,Yes,Yes,Yes,Sans Souci Beach,Various,"The New Otani Kaimana Beach Hotel, 2863, Kalākaua Avenue, Waikiki, Honolulu, Honolulu County, Hawaii, 96815, United States"
Tonggs,21.25903,-157.81884,Kozan Company,Kozan Company,Vertical and Horizontal,Sand,Rock,No,No,No,No,No,No,No,Tonggs,Waikiki - Diamond Head Fisheries Management Area,"3019 Kalakaua, Kalākaua Avenue, Honolulu, Honolulu County, Hawaii, 96815, United States"
Makalei Beach Park,21.25804,-157.81693,City & County of Honolulu,City & County of Honolulu,Vertical and Horizontal,Paved,Sand,No,Yes,Yes,Yes,Yes,No,No,Makalei Beach Park,Makalei Beach Park,"Diamond Head Road, Honolulu, Honolulu County, Hawaii, 96815, United States"
Le‘ahi  Beach Park,21.257,-157.81518,City & County of Honolulu,City & County of Honolulu,Vertical,Grass,Rock,No,No,No,Yes,No,No,No,Le‘ahi  Beach Park,Le‘Ahi  Beach Park,"Diamond Head Road, Honolulu, Honolulu County, Hawaii, 96815, United States"
Diamond Head Beach Park,21.25602,-157.81098,State of Hawaii,State of Hawaii,Vertical and Horizontal,Paved,Rock,No,No,No,Yes,No,No,No,Diamond Head Beach Park,Varous,"3396, Beach Road, Honolulu, Honolulu County, Hawaii, 96815, United States"
Kuilei Cliffs,21.25605,-157.80494,State of Hawaii,City & County of Honolulu,Vertical and Horizontal,Paved,Sand,No,Yes,No,Yes,Yes,No,No,Kuilei Cliffs,Diamond Head Lookout Recreation Park Area,"Scenic View, Diamond Head Road, Honolulu, Honolulu County, Hawaii, 96815, United States"
Ka'alawai,21.25737,-157.79667,State of Hawaii,City & County of Honolulu,Vertical and Horizontal,Paved,Sand,No,No,No,Yes,No,No,No,Kulamanu Place Access,"Emergency Access Road, The Following Are Prohibited..","200, Kulamanu Place, Black Point, Kahala, Honolulu, Honolulu County, Hawaii, 96816, United States"
Kaiko'o Place Beach Right of Way,21.25592,-157.79324,City & County of Honolulu,City & County of Honolulu,Vertical and Horizontal,Gravel,Rock,No,No,No,No,No,No,No,Lae o Kupikipiki‘o or Black Point,135A,"4382, Kaikoo Place, Black Point, Kahala, Honolulu, Honolulu County, Hawaii, 96816, United States"
Kahala Avenue at Elepaio Street,21.26069,-157.79022,BP Bishop Trust Estate,City & County of Honolulu,Vertical and Horizontal,Sand,Rock,No,No,No,Yes,No,No,No,Kahala Avenue at Elepaio Street,"134C, Beach Right Of Way","4398, Kahala Avenue, Black Point, Kahala, Honolulu, Honolulu County, Hawaii, 96816, United States"
Kahala Avenue at Kala Place,21.2622,-157.78715,BP Bishop Trust Estate,City & County of Honolulu,Vertical and Horizontal,Sand,Sand,No,No,No,Yes,No,No,No,Kahala Avenue at Kala Place,"134B, Beach Right Of Way","4505, Kahala Avenue, Black Point, Kahala, Honolulu, Honolulu County, Hawaii, 96816, United States"
Kahala Avenue at Hunakai Place,21.2639,-157.7844,BP Bishop Trust Estate,City & County of Honolulu,Vertical and Horizontal,Sand,Sand,No,No,No,Yes,No,No,No,Kahala Avenue at Hunakai Place,"134A, Beach Right Of Way, The Following Are Prohibited...","4615, Kahala Avenue, Black Point, Kahala, Honolulu, Honolulu County, Hawaii, 96816, United States"
Kahala Avenue at Koloa Street B,21.26552,-157.78209,BP Bishop Trust Estate,City & County of Honolulu,Vertical and Horizontal,Paved,Sand,No,No,No,Yes,No,No,No,Kahala Avenue at Koloa Street B,"133C, Beach Right Of Way, No Parking","4692, Kahala Avenue, Black Point, Kahala, Honolulu, Honolulu County, Hawaii, 96816, United States"
Kahala Avenue at Koloa Street A,21.26592,-157.78158,BP Bishop Trust Estate,City & County of Honolulu,Vertical and Horizontal,Paved,Sand,No,No,No,No,No,No,No,Kahala Avenue at Koloa Street A,"133B, Beach Right Of Way, No Parking","4708, Kahala Avenue, Black Point, Kahala, Honolulu, Honolulu County, Hawaii, 96816, United States"
Kahala Avenue at Koloa Street C,21.26636,-157.78118,BP Bishop Trust Estate,City & County of Honolulu,Vertical and Horizontal,Paved,Sand,No,No,No,Yes,No,No,No,Kahala Avenue at Koloa Street C,"133A, Beach Right Of Way, No Parking","4726, Kahala Avenue, Black Point, Kahala, Honolulu, Honolulu County, Hawaii, 96816, United States"
Wai'alae Beach Park,21.27002,-157.77736,City & County of Honolulu,City & County of Honolulu,Vertical and Horizontal,Paved,Sand,Yes,Yes,Yes,Yes,Yes,Yes,No,Wai'alae Beach Park,Wai'Alae Beach Park,"Kahala Avenue, Wailupe, Kahala, Honolulu, Honolulu County, Hawaii, 96821, United States"
Wailupe Beach Park,21.27622,-157.75995,State of Hawaii and City & County of Honolulu,City & County of Honolulu,Vertical and Horizontal,Grass,Rock,Yes,Yes,Yes,Yes,Yes,Yes,No,Wailupe Beach Park,Wailupe Beach Park,"5039, Kalaniana’ole Highway, Waialae Iki and Wiliwilinui, Honolulu, Honolulu County, Hawaii, 96821, United States"
Wailupe Access on Hind Drive,21.27764,-157.75504,State of Hawaii,State of Hawaii,Vertical,Dirt,Rock,No,No,No,No,No,No,No,"Wailupe, Hind Drive",,"5165, Kalaniana’ole Highway, ‘Āina Haina, Honolulu, Honolulu County, Hawaii, 96821, United States"
Kawaiku'i Beach Park,21.27952,-157.74526,City & County of Honolulu,City & County of Honolulu,Vertical and Horizontal,Grass,Sand,Yes,Yes,Yes,Yes,Yes,Yes,No,Kawaiku'i Beach Park,Kawaiku'I Beach Park,"5499, Kalaniana’ole Highway, ‘Āina Haina, Honolulu, Honolulu County, Hawaii, 96821, United States"
Kalanianiole,21.28093,-157.73828,City & County of Honolulu,City & County of Honolulu,Vertical and Horizontal,Gravel,Sand,No,No,No,No,No,No,No,Kalanianiole,"128A, Beach Right Of Way","5654, Kalaniana’ole Highway, Niu Valley, Niu and Niuiki Circle, Hawaii Loa Ridge, Honolulu, Honolulu County, Hawaii, 96821, United States"
Paiko Drive,21.28127,-157.72814,MPC First LLC,City & County of Honolulu,Vertical and Horizontal,Sand,Sand,No,No,No,No,No,No,No,Paiko Lagoon,127A Beach Right Of Way Pedestrain Traffic Only,"306, Paiko Drive, Niu Valley, Kuliouou, Honolulu, Honolulu County, Hawaii, 96821, United States"
Paiko Lagoon,21.28451,-157.72302,State of Hawaii,State of Hawaii,Vertical and Horizontal,Sand,Rock,No,No,No,No,No,No,No,Kuliouou - Paiko,Various,"100, Kuliouou Road, Kuliouou, Honolulu, Honolulu County, Hawaii, 96821, United States"
Kuli'ou'ou Beach Park,21.28428,-157.7211,State of Hawaii,City & County of Honolulu,Vertical and Horizontal,Sand,Sand,Yes,Yes,Yes,Yes,Yes,No,No,Kuli'ou'ou Beach Park,Kuli'Ou'Ou Beach Park,"101, Bay Street, Kuliouou, Honolulu, Honolulu County, Hawaii, 96821, United States"
Maunalua Bay Beach Park,21.2819,-157.71349,State of Hawaii and City & County of Honolulu,City & County of Honolulu,Vertical and Horizontal,Grass,Sand,Yes,No,Yes,Yes,No,No,No,Maunalua Park,Various,"6771, Kalaniana’ole Highway, Marina East, Honolulu, Honolulu County, Hawaii, 96795, United States"
Koke'e Beach Right of Way,21.2662,-157.709933,City & County of Honolulu,City & County of Honolulu,Vertical and Horizontal,Grass,Cliff,No,No,No,Yes,No,No,No,China Walls,"121A, Various","198, Kōke‘e Place, Portlock, Koko Head, Honolulu, Honolulu County, Hawaii, 96825, United States"
Koko Kai Beach Right Of Way,21.26161,-157.71142,City & County of Honolulu,City & County of Honolulu,Vertical and Horizontal,Grass and Dirt,Cliff,No,No,No,Yes,No,No,No,China Walls,"120A, Koko Kai Mini Beach Park","2, Hanapepe Place, Portlock, Koko Head, Honolulu, Honolulu County, Hawaii, 96825, United States"
Lumahai Street,21.25978,-157.70775,City & County of Honolulu,City & County of Honolulu,Vertical and Horizontal,Rocky,Cliff,No,No,No,No,No,No,No,Spitting Caves,"119A, Various","Spitting Cave, Lumahai Street, Portlock, Koko Head, Honolulu, Honolulu County, Hawaii, 96825, United States"
Hanauma Bay Nature Preserve and State Underwater Park,21.27518,-157.69368,City & County of Honolulu,City & County of Honolulu,Vertical and Horizontal,Paved,Rock,No,No,No,No,No,No,No,Koko Head Regional Park,Various,"7697, Kalaniana’ole Highway, Portlock, Koko Head, Honolulu, Honolulu County, Hawaii, 96825, United States"
Lanai Lookout Area,21.27643,-157.68565,City & County of Honolulu,City & County of Honolulu,Vertical and Horizontal,Rocky,Cliff,No,No,No,No,No,No,No,Koko Head Regional Park,Various,"Lanai Lookout, Kalaniana’ole Highway, Koko Head, Honolulu, Honolulu County, Hawaii, 96825, United States"
Koko Head Regional Park,21.27763,-157.68326,City & County of Honolulu,City & County of Honolulu,Vertical and Horizontal,Rocky,Cliff,No,No,No,No,No,No,No,Lanai Lookout; Bamboo Ridge,,"8231, Kalaniana’ole Highway, Lunalilo Park Mauka, Honolulu, Honolulu County, Hawaii, 96825, United States"
Bamboo Ridge,21.28032,-157.67755,City & County of Honolulu,City & County of Honolulu,Vertical and Horizontal,Rocky,Cliff,No,No,No,No,No,No,No,Koko Head Regional Park,,"Japanese Fishing Shrine & Chinese Guan Yin Shrine, Kalaniana’ole Highway, Koko Head, Honolulu, Honolulu County, Hawaii, 96825, United States"
Eternity Beach - Cockroach Cove,21.28202,-157.67699,City & County of Honolulu,City & County of Honolulu,Vertical and Horizontal,Rocky,"Sand, Rock",No,No,No,No,No,No,No,Koko Head Regional Park,,"Halona Blowhole Lookout, Kalaniana’ole Highway, Koko Head, Honolulu, Honolulu County, Hawaii, 96825, United States"
Sandy Beach,21.2871,-157.66916,State of Hawaii and City & County of Honolulu,City & County of Honolulu,Vertical and Horizontal,Sand,Sand,Yes,Yes,Yes,Yes,Yes,Yes,Yes,Sandy Beach,Various,"Kalaniana’ole Highway, Kalama Valley, Honolulu, Honolulu County, Hawaii, 96825, United States"
Makapu'u Point Wayside Park,21.29181,-157.66209,State of Hawaii,State of Hawaii,Vertical and Horizontal,Sand,Rock,No,No,No,Yes,No,No,No,,Various,"9003, Kalaniana’ole Highway, Kalama Valley, Honolulu, Honolulu County, Hawaii, 96821, United States"
Makapu'u Point Wayside Park,21.304681,-157.64912,State of Hawaii,State of Hawaii,Vertical and Horizontal,Rocky,Rock,No,No,No,No,No,No,No,Makapu'u Tide Pools,,"Makapu'u Lighthouse Trail, Kalama Valley, Honolulu, Honolulu County, Hawaii, United States"
Makapu'u Beach Park,21.3133,-157.66077,DHHL,City & County of Honolulu,Horizontal,Paved,Sand,Yes,Yes,Yes,Yes,Yes,Yes,Yes,makapuu beach,Various,"Sea Life Park, 41-202, Kalaniana’ole Highway, Honolulu County, Hawaii, 96795, United States"
Kaupo Beach Park,21.31603,-157.66475,DHHL,Licensed to City & County of Honolulu,Vertical and Horizontal,Sand,Sand,Yes,Yes,Yes,Yes,Yes,No,No,Kaupo Beach Park,Kaupo,"Hawaii Pacific University - Oceanic Institute, Kalaniana’ole Highway, Waimanalo Beach, Honolulu County, Hawaii, 96795, United States"
Kaiona Beach Park,21.32563,-157.68217,DHHL,Licensed to City & County of Honolulu,Vertical and Horizontal,Grass,Sand,Yes,Yes,Yes,Yes,Yes,No,No,Kaiona Beach Park,Kaione Beach Park,"Kaiona Beach Park, Kalaniana’ole Highway, Waimanalo Beach, Honolulu County, Hawaii, 96795, United States"
Waimanalo Beach Park,21.33246,-157.69364,State of Hawaii & DHHL (Licensed to City),City & County of Honolulu,Vertical and Horizontal,Grass,Sand,Yes,Yes,Yes,Yes,Yes,Yes,Yes,Waimanalo Beach Park,Waimanalo Beach Park,"Waimanalo beach park, Kalaniana’ole Highway, Waimanalo Beach, Honolulu County, Hawaii, 96795, United States"
Laumilo I,21.33416,-157.69575,State of Hawaii,City & County of Honolulu,Vertical and Horizontal,Grass,Sand,No,No,No,No,No,No,No,Laumilo I,"101B, Public Right Of Way To Beach","Laumilo Street, Waimanalo Beach, Honolulu County, Hawaii, 96795, United States"
Laumilo H,21.33502,-157.69633,State of Hawaii,City & County of Honolulu,Vertical and Horizontal,Grass,Sand,No,No,No,No,No,No,No,Laumilo H,"101A, Public Right Of Way To Beach","Laumilo Street, Waimanalo Beach, Honolulu County, Hawaii, 96795, United States"
Laumilo G,21.33578,-157.69686,State of Hawaii,City & County of Honolulu,Vertical and Horizontal,Grass,Sand,No,No,No,No,No,No,No,Laumilo G,"100G, Public Right Of Way To Beach","100 G, Waimanalo Beach, Honolulu County, Hawaii, 96795, United States"
Laumilo F,21.3366,-157.69737,State of Hawaii,City & County of Honolulu,Vertical and Horizontal,Grass,Sand,No,No,No,No,No,No,No,Laumilo F,"100F, Public Right Of Way To Beach","100 F, Waimanalo Beach, Honolulu County, Hawaii, 96795, United States"
Laumilo E,21.33743,-157.69796,State of Hawaii,City & County of Honolulu,Vertical and Horizontal,Grass,Sand,No,No,No,No,No,No,No,Laumilo E,"100E, Public Right Of Way To Beach","100 E, Waimanalo Beach, Honolulu County, Hawaii, 96795, United States"
Laumilo D,21.33823,-157.69854,State of Hawaii,City & County of Honolulu,Vertical and Horizontal,Grass,Sand,No,No,No,No,No,No,No,Laumilo D,"100D, Public Right Of Way To Beach","Laumilo Street, Waimanalo Beach, Honolulu County, Hawaii, 96795, United States"
Laumilo C,21.33905,-157.69911,State of Hawaii,City & County of Honolulu,Vertical and Horizontal,Grass,Sand,No,No,No,No,No,No,No,Laumilo C,"100C, Public Right Of Way To Beach","Laumilo Street, Waimanalo Beach, Honolulu County, Hawaii, 96795, United States"
Laumilo B,21.33991,-157.69959,State of Hawaii,City & County of Honolulu,Vertical and Horizontal,Grass,Sand,No,No,No,No,No,No,No,Laumilo B,"100B, Public Right Of Way To Beach","100 B, Waimanalo Beach, Honolulu County, Hawaii, 96795, United States"
Laumilo A,21.3407,-157.7001,State of Hawaii,City & County of Honolulu,Vertical and Horizontal,Grass,Sand,No,No,No,No,No,No,No,Laumilo A,"100A, Public Right Of Way To Beach","100 A, Waimanalo Beach, Honolulu County, Hawaii, 96795, United States"
Waimanalo Bay Beach Park,21.3443,-157.7023,City & County of Honolulu,City & County of Honolulu,Vertical and Horizontal,Grass,Sand,Yes,Yes,Yes,Yes,Yes,Yes,Yes,Waimanalo Bay Beach Park,Waimanalo Bay Beach Park,"Aloiloi Street, Waimanalo Beach, Honolulu County, Hawaii, 96795, United States"
Bellows Field Beach Park,21.34556,-157.71013,United States of America,City & County of Honolulu,Vertical and Horizontal,Grass,Sand,Yes,Yes,Yes,Yes,Yes,No,Yes,Bellows Field Beach Park,No Vehiles On The Beach   The Following Are Prohibited…,"797, Tinker Road, Waimanalo Beach, Honolulu County, Hawaii, 96795, United States"
Mokulua Drive A,21.383356,-157.709992,Lanikai Community Association,City & County of Honolulu,Vertical and Horizontal,Sand,Sand,No,No,No,Yes,No,No,No,,"94B, Public Right Of Way To Beach","Public Beach Access, Lanikai, Kailua, Honolulu County, Hawaii, 96735, United States"
Mokulua Drive B,21.3872,-157.712111,Lanikai Community Association,City & County of Honolulu,Vertical and Horizontal,Sand,Sand,No,No,No,Yes,No,No,No,Mokulua Drive B,94A,"1266, Mōkūlua Drive, Lanikai, Kailua, Honolulu County, Hawaii, 96734, United States"
Mokulua Drive C,21.391389,-157.715628,Lanikai Community Association,City & County of Honolulu,Vertical and Horizontal,Sand,Sand,No,No,No,Yes,No,No,No,Mokulua Drive C,"93A, Public Right Of Way To Beach","998, Mōkūlua Drive, Lanikai, Kailua, Honolulu County, Hawaii, 96734, United States"
Mokulua Drive D,21.392453,-157.716414,Lanikai Community Association,Lanikai Community Association,Vertical and Horizontal,Sand,Sand,No,No,No,Yes,No,No,No,Mokulua Drive D,Public Right Of Way To Beach,"948, Mōkūlua Drive, Lanikai, Kailua, Honolulu County, Hawaii, 96734, United States"
Boat Ramp at Kailua Beach Park,21.395456,-157.722972,State of Hawaii,State of Hawaii,Vertical and Horizontal,Sand,Sand,Yes,Yes,No,Yes,Yes,Yes,Yes,Boat Ramp,Reserved Parking For Vehicles With Trailers,"4, Alala Road, Lanikai, Kailua, Honolulu County, Hawaii, 96734, United States"
Kailua Beach Park,21.396411,-157.726025,City & County of Honolulu,City & County of Honolulu,Vertical and Horizontal,Paved,Sand,Yes,Yes,Yes,Yes,Yes,Yes,Yes,Kailua Beach Park,,"Buzz's Steakhouse, 413, Kawailoa Road, Lanikai, Kailua, Honolulu County, Hawaii, 96734, United States"
Kailua Beach Park,21.398022,-157.728144,State of Hawaii and City & County of Honolulu,City & County of Honolulu,Vertical and Horizontal,Sand,Sand,Yes,Yes,Yes,Yes,Yes,Yes,Yes,Kailua Beach Park (Kalama),Kailua Beach Park(Kalama),"320, Makalii Place, Lanikai, Kailua, Honolulu County, Hawaii, 96734, United States"
South Kalaheo Ave at Kuuniu Street,21.398822,-157.733672,Various Owners,City & County of Honolulu,Vertical and Horizontal,Sand,Sand,No,No,No,No,No,No,No,South Kalaheo Ave at Kuuniu St,"91A, Public Right Of Way To Beach","88, South Kalāheo Avenue, Kailua, Honolulu County, Hawaii, 96734, United States"
Kalama Beach Park,21.404206,-157.740444,City & County of Honolulu,City & County of Honolulu,Vertical and Horizontal,Paved,Sand,Yes,Yes,No,Yes,Yes,Yes,No,Kalama Beach Park,Kalama Beach Park,"258, North Kalāheo Avenue, Kailua, Honolulu County, Hawaii, 96734, United States"
North Kalaheo Avenue at Dune Street,21.404794,-157.741178,Frank Creedon Trust,City & County of Honolulu,Vertical and Horizontal,Sand,Sand,No,No,No,Yes,No,No,No,North Kalaheo Avenue at Dune Street,"90B, Dune Beach Right","Public Beach Access, Kailua, Honolulu County, Hawaii, 96735, United States"
North Kalaheo Avenue at Pueohala Pl,21.408297,-157.743228,Frank Creedon Trust,City & County of Honolulu,Vertical and Horizontal,Grass,Sand,No,No,No,Yes,No,No,No,North Kalaheo Avenue at Pueohala Pl,"90A, Pueohala Public","454, North Kalāheo Avenue, Kailua, Honolulu County, Hawaii, 96734, United States"
North Kalaheo Avenue at Ainoni Street,21.409744,-157.744139,Frank Creedon Trust,City & County of Honolulu,Vertical and Horizontal,Sand,Sand,No,No,No,Yes,No,No,No,"kai one, ainoni street","89B, Kai One Beach Right Of Way","Kai One Beach Access, Kailua, Honolulu County, Hawaii, 96735, United States"
North Kalaheo Ave at Kawainui Canal,21.417669,-157.747153,City & County of Honolulu,City & County of Honolulu,Vertical and Horizontal,Dirt,Sand,No,No,No,Yes,No,No,No,North Kalaheo Ave at Kawainui Canal,"89A, Kailuana Beach Right Of Way Right Of Way To Beach","Public Beach Access, Kailua, Honolulu County, Hawaii, 96734, United States"
Kaimalino Street,21.425828,-157.739856,City & County of Honolulu,City & County of Honolulu,Vertical and Horizontal,Dirt,Sand,No,No,No,Yes,No,No,No,Kaimalino Street,"87B, Pubic Right Of Way To Beach","616, Kaimalino Street, Kailua, Honolulu County, Hawaii, 96734, United States"
Milokai Place,21.428075,-157.738517,City & County of Honolulu,City & County of Honolulu,Vertical and Horizontal,Sand,Sand,No,No,No,Yes,No,No,No,Milokai Place,Pubic Right Of Way To Beach,"698, Milokai Place, Kailua, Honolulu County, Hawaii, 96734, United States"
Kane'ohe Bay Drive B,21.422906,-157.763489,City & County of Honolulu,City & County of Honolulu,Vertical,Dirt,Rock,No,No,No,No,No,No,No,Kane'ohe Bay Drive B,"68A, Public Right Of Way To Beach","Kaneohe Bay Drive, Mahinui, Kaneohe, Honolulu County, Hawaii, 96863, United States"
Kane'ohe Bay Drive A,21.41405,-157.768808,Various Owners,City & County of Honolulu,Vertical and Horizontal,Dirt,Rock,No,No,No,No,No,No,No,Kane'ohe Bay Drive A,,"Kaneohe Bay Drive, Mahinui, Kaneohe, Honolulu County, Hawaii, 96863, United States"
Mikiola Dr. C,21.412472,-157.773731,State of Hawaii,State of Hawaii,Vertical,Dirt,Rock,No,No,No,No,No,No,No,Mikiola Dr. C,,"Mikiola Drive, Mahinui, Kaneohe, Honolulu County, Hawaii, 96744, United States"
Mikiola Dr. B,21.412453,-157.775247,State of Hawaii,State of Hawaii,Vertical,Dirt,Rock,No,No,No,No,No,No,No,Mikiola Dr. B,,"Mikiola Drive, Mahinui, Kaneohe, Honolulu County, Hawaii, 96744, United States"
Mikiola Dr. A,21.412172,-157.776367,State of Hawaii,State of Hawaii,Vertical,Paved,Rock,No,No,No,No,No,No,No,Mikiola Dr. A,Pubic Right Of Way To Beach,"Mikiola Drive, Mahinui, Kaneohe, Honolulu County, Hawaii, 96744, United States"
Kane'ohe Beach Park,21.412769,-157.7856,City & County of Honolulu,City & County of Honolulu,Vertical and Horizontal,Dirt,Sand,Yes,Yes,Yes,Yes,Yes,No,No,Kane'ohe beach park,The Following Are Prohibited...,"Waikalua Road, Kokokahi, Kaneohe, Honolulu County, Hawaii, 96744, United States"
Ali'i Landing Shoreline Access,21.430417,-157.806111,Various Owners,City Access Easement,Vertical,Dirt,Rock,No,No,No,No,No,No,No,Alii Landing Shoreline Access (Ipuka St),No Sign At Time Of Survey,"Ipuka Street, He‘eia, Heeia, Honolulu County, Hawaii, 96744, United States"
Kane'ohe Bay Drive Beach Right of Way,21.452583,-157.819733,City & County of Honolulu,City & County of Honolulu,Vertical,Grass,Rock,No,No,No,No,No,No,No,Kane'ohe Bay Dr Beach Right of Way,Public Beach Right Of Way,"Kamehameha Highway, He‘eia, Heeia, Honolulu County, Hawaii, 96744, United States"
Laenani Neighborhood Park,21.458933,-157.832217,City & County of Honolulu,City & County of Honolulu,Vertical and Horizontal,Grass,Rock,Yes,Yes,Yes,Yes,Yes,No,No,Laenani Neighborhood Park,Laenani Neighborhood Park,"Laenani Drive, Kahalu‘u, Honolulu County, Hawaii, United States"
Kahalu'u Regional Park,21.459417,-157.839917,City & County of Honolulu,City & County of Honolulu,Vertical and Horizontal,Gravel and Grass,Rock,No,No,Yes,Yes,No,No,No,Kahaluu Regional Park,No Dumping,"Kamehameha Highway, Honolulu County, Hawaii, United States"
Waiahole Beach Park,21.484517,-157.847333,City & County of Honolulu,City & County of Honolulu,Vertical and Horizontal,Grass,"Sand, Rock",No,No,No,Yes,No,No,No,Waiahole Beach Park,No Dumping,"Kamehameha Highway, Waikāne, Honolulu County, Hawaii, 96730, United States"
Kualoa Regional Park,21.516933,-157.837617,City & County of Honolulu,City & County of Honolulu,Vertical and Horizontal,Grass,"Sand, Rock",Yes,Yes,Yes,Yes,Yes,Yes,Yes,Kualoa Regional Park,Kualoa Regional Park,"Kualoa Park Drive, Honolulu County, Hawaii, 96730, United States"
Kalae’o’io Beach Park,21.545167,-157.846017,City & County of Honolulu,City & County of Honolulu,Vertical and Horizontal,Grass,Sand,No,No,No,No,No,No,No,Kalae’o’io Beach Park,Kalae’O’Io Beach Park,"State Highway 83, Kaaawa, Honolulu County, Hawaii, 96730, United States"
Ka'a'awa Beach Park,21.549333,-157.8467,City & County of Honolulu,City & County of Honolulu,Vertical and Horizontal,Grass,Sand,Yes,Yes,Yes,Yes,Yes,Yes,No,Ka'a'awa Beach Park,No Camping,"State Highway 83, Kaaawa, Honolulu County, Hawaii, 96730, United States"
Swanzy Beach Park,21.5562,-157.853033,City & County of Honolulu,City & County of Honolulu,Horizontal at low tide only,Grass,Sand,Yes,Yes,Yes,Yes,Yes,Yes,No,Swanzy Beach Park,Swanzy Beach Park,"7-Eleven, State Highway 83, Kaaawa, Honolulu County, Hawaii, 96730, United States"
Makaua Beach Park,21.557983,-157.8579,City & County of Honolulu,City & County of Honolulu,Vertical and Horizontal,Grass,"Sand, Rock",No,No,No,No,No,No,No,Makaua Beach Park,,"State Highway 83, Kaaawa, Honolulu County, Hawaii, 96730, United States"
Ahupua'a 'O Kahana,21.5585,-157.876083,State of Hawaii,State of Hawaii,Vertical and Horizontal,Grass,"Sand, Rock, Cliff",Yes,Yes,Yes,Yes,Yes,Yes,No,Ahupua'a 'O Kahana,Ahupua'A 'O Kahana State Park,"State Highway 83, Kahana, Honolulu County, Hawaii, 96730, United States"
Punalu'u Beach Park,21.57815,-157.883883,State of Hawaii,City & County of Honolulu,Vertical and Horizontal,Grass,Rock,Yes,Yes,Yes,Yes,Yes,Yes,No,Punalu'u Beach Park,Punalu'U Beach Park,"State Highway 83, Honolulu County, Hawaii, 96730, United States"
Kaluanui Kam Hwy B,21.594639,-157.895325,City & County of Honolulu,City & County of Honolulu,Vertical and Horizontal,Grass,Sand,No,No,No,Yes,Yes,No,No,Kaluanui Beach,28B; Kaluanui Beach,"State Highway 83, Punaluu, Honolulu County, Hawaii, 96717, United States"
Kaluanui Kam Hwy A,21.595836,-157.895956,City & County of Honolulu,City & County of Honolulu,Vertical and Horizontal,Sand,Sand,No,No,No,No,No,No,No,Kaluanui Kam Hwy A,,"State Highway 83, Punaluu, Honolulu County, Hawaii, 96717, United States"
Kaluanui Road,21.597833,-157.897017,City & County of Honolulu,City & County of Honolulu,Vertical and Horizontal,Grass,River,No,No,No,No,No,No,No,Kaluanui Road,,"State Highway 83, Punaluu, Honolulu County, Hawaii, 96717, United States"
Hau'ula Roadside Access B,21.60045,-157.897517,State of Hawaii,State of Hawaii,Vertical and Horizontal,Sand,"Rock, Cliff",No,No,No,No,No,No,No,Hau'ula Roadside Access,,"State Highway 83, Hauula, Honolulu County, Hawaii, 96717, United States"
Hau'ula Roadside Access A,21.60685,-157.904867,State of Hawaii,State of Hawaii,Vertical and Horizontal,Sand,"Rock, Sand",No,No,No,No,No,No,No,Hau'ula Roadside Access A,,"State Highway 83, Hauula, Honolulu County, Hawaii, 96717, United States"
Hau'ula Beach Remnant Beach Right of Way,21.607031,-157.905911,State of Hawaii,City & County of Honolulu,Vertical and Horizontal,Grass,Sand,No,No,No,No,No,No,No,Hau'ula Beach Remnant Beach Right of Way,Public Right Of Way To Beach,"State Highway 83, Hauula, Honolulu County, Hawaii, 96717, United States"
Hau'ula Beach Park,21.612242,-157.911083,State of Hawaii,City & County of Honolulu and State of Hawaii,Vertical and Horizontal,Grass,Sand,Yes,Yes,Yes,Yes,Yes,Yes,No,Hau'ula Beach Park,Hau'Ula Beach Park,"Hau'ula Beach Park Pavillion, State Highway 83, Hauula, Honolulu County, Hawaii, 96717, United States"
Kokololio Beach Park,21.622925,-157.918181,City & County of Honolulu,City & County of Honolulu,Vertical and Horizontal,Grass,Sand,Yes,Yes,Yes,Yes,Yes,Yes,No,Kokololio Beach Park,The Following Are Prohibited...,"State Highway 83, Hauula, Honolulu County, Hawaii, 96717, United States"
La’ie Beach Park,21.631861,-157.9212,State of Hawaii,City & County of Honolulu,Vertical and Horizontal,Grass,Sand,No,Yes,Yes,Yes,Yes,No,No,La’ie Beach Park; Pounders,La’Ie Beach Park; The Following Are Prohibited...,"State Highway 83, Laie, Honolulu County, Hawaii, 96762, United States"
Kamehameha Hwy Beach Right of Way,21.645222,-157.919847,City & County of Honolulu,City & County of Honolulu,Vertical and Horizontal,Sand,Sand,No,No,No,No,No,No,No,Kamehameha Hwy Beach Right of Way,20A; Public Right Of Way To Beach,"State Highway 83, Laie, Honolulu County, Hawaii, 96762, United States"
La’ie Point,21.648556,-157.914533,Various Owners,State of Hawaii,Vertical and Horizontal,Rocky,Rock,No,No,No,Yes,No,No,No,La’ie Point,Various,"Naupaka Street, Laie, Honolulu County, Hawaii, 96762, United States"
Hukilau Beach,21.65255,-157.928556,Property Reserve Inc,Property Reserve Inc,Vertical and Horizontal,Grass,Sand,Yes,Yes,Yes,Yes,Yes,No,No,Hukilau Beach,Hukilau Beach,"State Highway 83, Laie, Honolulu County, Hawaii, 96762, United States"
Malaekahana State Rec Area (Kalanai Section),21.659981,-157.929014,State of Hawaii,State of Hawaii,Vertical and Horizontal,Grass,Sand,Yes,Yes,Yes,Yes,Yes,Yes,No,Malaekahana State Rec Area (Kalanai Section),Malaekahana State Rec Area Dlnr,"Honolulu County, Hawaii, 96762, United States"
Malaekahana State Recreation Area,21.669275,-157.938469,State of Hawaii,State of Hawaii,Vertical and Horizontal,Grass,Sand,Yes,Yes,Yes,Yes,Yes,No,No,Malaekahana State Recreation Area,Malaekahana State Recreation Area,"Jones’ Beach House, State Highway 83, Honolulu County, Hawaii, 96762, United States"
Turtle Bay East,21.704619,-157.997119,Turtle Bay Resort,Turtle Bay Resort,Vertical and Horizontal,Pavement,Sand,Yes,Yes,No,Yes,Yes,No,No,Turtle Bay East,Public Beach Caution No Lifeguard On Duty,"Roy’s Beach House, Kuilima Drive, Honolulu County, Hawaii, 96731, United States"
Turtle Bay West,21.704131,-157.997836,Turtle Bay Resort,Turtle Bay Resort,Vertical and Horizontal,Pavement,Rock,No,Yes,No,Yes,Yes,No,No,Turtle Bay West,Shoreline Public Access; Public Beach Caution No Lifeguard On Duty,"Kuilima Drive, Honolulu County, Hawaii, 96731, United States"
Waiale'e Beach Park,21.693183,-158.019561,State of Hawaii and City & County of Honolulu,City & County of Honolulu,Vertical and Horizontal,Sand,Sand,No,No,No,Yes,No,No,No,Waiale'e Beach Park,No Camping Gated During Time Of Survey,"Kamehameha Highway, Sunset Beach, Waiale‘e, Honolulu County, Hawaii, United States"
Sunset Point Beach Park,21.68018,-158.03717,City & County of Honolulu,City & County of Honolulu,Vertical and Horizontal,Sand,Sand,No,No,No,Yes,No,No,No,BackyaRoads,"281B, Public Right Of Way To Beach","Backyards Beach, Makanale Street, Sunset Beach, Waiale‘e, Honolulu County, Hawaii, United States"
O'opuola Street,21.680164,-158.037175,City & County of Honolulu,City & County of Honolulu,Vertical and Horizontal,Sand,Sand,No,No,No,Yes,No,No,No,BackyaRoads,"281B, Public Right Of Way To Beach","59000, Oopuola Street, Sunset Beach, Waiale‘e, Honolulu County, Hawaii, 96712, United States"
Kahauola Street Beach Right of Way,21.67834,-158.03842,City & County of Honolulu,City & County of Honolulu,Vertical and Horizontal,Sand,Sand,No,No,No,Yes,No,No,No,Kahauola Street,"281A, Public Right Of Way To Beach","Holawa Street, Sunset Beach, Waiale‘e, Honolulu County, Hawaii, United States"
Huelo Street Beach Right of Way,21.67692,-158.03867,City & County of Honolulu,City & County of Honolulu,Vertical and Horizontal,Sand,Sand,No,No,No,Yes,No,No,No,Huelo Street,"280B, Public Right Of Way To Beach","Huelo Street, Sunset Beach, Waiale‘e, Honolulu County, Hawaii, United States"
Sunset Beach Park,21.674158,-158.040192,State of Hawaii and City & County of Honolulu,City & County of Honolulu,Vertical and Horizontal,Sand,Sand,Yes,Yes,Yes,Yes,Yes,Yes,Yes,Suset Beach and Support Park,,"Ke Ala Pupukea Bike Path, Sunset Beach, Waiale‘e, Honolulu County, Hawaii, United States"
Ke Nui A,21.672433,-158.042183,State of Hawaii and City & County of Honolulu,City & County of Honolulu and State of Hawaii,Vertical and Horizontal,Sand,Sand,No,No,No,Yes,No,No,No,Ke Nui A,,"Ke Nui Road, Sunset Beach, Waiale‘e, Honolulu County, Hawaii, United States"
Ke Nui B,21.670967,-158.043867,State of Hawaii and City & County of Honolulu,City & County of Honolulu and State of Hawaii,Vertical and Horizontal,Sand,Sand,No,No,No,Yes,No,No,No,Ke Nui B,,"Sunset Beach, Waiale‘e, Honolulu County, Hawaii, United States"
Ke Nui D,21.669817,-158.045163,State of Hawaii and City & County of Honolulu,City & County of Honolulu and State of Hawaii,Vertical and Horizontal,Sand,Sand,No,No,No,Yes,No,No,No,Ke Nui D,279C,"Sunset Beach, Waiale‘e, Honolulu County, Hawaii, United States"
Ke Nui C,21.6686,-158.04644,State of Hawaii and City & County of Honolulu,City & County of Honolulu and State of Hawaii,Vertical and Horizontal,Sand,Sand,No,No,No,Yes,No,No,No,Ke Nui C,"279D, Beach Right Of Way; Private Residence Vehicle Access Only","Rocky rights surf, Ke Nui Road, Sunset Beach, Waiale‘e, Honolulu County, Hawaii, United States"
Ke Nui E,21.6682,-158.04785,State of Hawaii and City & County of Honolulu,City & County of Honolulu and State of Hawaii,Vertical and Horizontal,Sand,Sand,No,No,No,Yes,No,No,No,Ke Nui E,279B,"Beach Access, Sunset Beach, Waiale‘e, Honolulu County, Hawaii, United States"
Ke Nui F,21.66615,-158.049117,State of Hawaii and City & County of Honolulu,City & County of Honolulu and State of Hawaii,Vertical and Horizontal,Sand,Sand,No,No,No,Yes,No,No,No,Ke Nui F,"279A, Beach Right Of Way","Ke Nui Road, Sunset Beach, Waiale‘e, Honolulu County, Hawaii, United States"
Ehukai Beach Park,21.664931,-158.050682,City & County of Honolulu,City & County of Honolulu,Vertical and Horizontal,Grass,Sand,Yes,Yes,Yes,Yes,Yes,No,Yes,Ehukai Beach Park,The Following Are Prohibited...,"Ke Nui Road, Sunset Beach, Waiale‘e, Honolulu County, Hawaii, United States"
Ke Nui G,21.663817,-158.05175,State of Hawaii and City & County of Honolulu,City & County of Honolulu and State of Hawaii,Vertical and Horizontal,Sand,Sand,No,No,No,No,No,No,No,Ke Nui G,"278D, Public Right Of Way To Beach","Pūpūkea, Honolulu County, Hawaii, United States"
Ke Waena,21.659592,-158.056753,State of Hawaii,State of Hawaii,Vertical and Horizontal,Sand,Sand,No,No,No,Yes,No,No,Yes,Ka Waena,"278A, Public Right Of Way To Beach","Ke Waena Road, Pūpūkea, Honolulu County, Hawaii, United States"
Ke Iki C,21.655778,-158.059228,State of Hawaii and City & County of Honolulu,City & County of Honolulu and State of Hawaii,Vertical and Horizontal,Sand,Sand,No,No,No,Yes,No,No,No,Ke Iki C,276C,"Ke Iki Road, Pūpūkea, Honolulu County, Hawaii, United States"
Ke Iki B,21.654186,-158.060128,State of Hawaii and City & County of Honolulu,City & County of Honolulu and State of Hawaii,Vertical and Horizontal,Paved and Sand,Sand,No,No,No,No,No,No,Yes,Ke Iki B,276B,"Ke Iki Road, Pūpūkea, Honolulu County, Hawaii, United States"
Ke Iki A,21.652644,-158.060931,State of Hawaii and City & County of Honolulu,City & County of Honolulu and State of Hawaii,Vertical and Horizontal,Paved,Rock,No,No,No,No,No,No,No,Ke Iki A,"276A, Public Right Of Way To Beach","Ke Iki Road, Pūpūkea, Honolulu County, Hawaii, United States"
Pupukea Beach Park,21.649875,-158.062272,State of Hawaii,City & County of Honolulu,Vertical and Horizontal,Rocky,Sand,Yes,Yes,No,No,No,No,No,Pupukea Beach Park,Various,"Pahoe Road, Honolulu County, Hawaii, United States"
Pupukea Beach Park,21.648083,-158.062803,State of Hawaii,City & County of Honolulu,Vertical and Horizontal,Rocky,Rock,Yes,No,No,Yes,Yes,No,No,Pupukea Beach Park,Various,"Sunset Beach Fire Station, Kamehameha Highway, Pūpūkea, Honolulu County, Hawaii, United States"
Pupukea Beach Park,21.645772,-158.063142,State of Hawaii,City & County of Honolulu,Vertical and Horizontal,Rocky,Rock,No,No,No,Yes,No,No,No,Pupukea Beach Park,Various,"Kapuhi Street, Honolulu County, Hawaii, United States"
Waimea Bay Beach Park,21.639607,-158.060526,City & County of Honolulu,City & County of Honolulu,Vertical and Horizontal,Paved,Sand,Yes,Yes,Yes,Yes,Yes,Yes,Yes,Waimea Bay Beach Park,Various,"Kamehameha Highway, Kapaeloa, Honolulu County, Hawaii, United States"
Uppers Surfing Support Park,21.633778,-158.069756,City & County of Honolulu,City & County of Honolulu,Vertical and Horizontal,Rocky,Rock,No,No,No,No,No,No,No,Uppers Surfing Support Park,,"Kamehameha Highway, Kapaeloa, Honolulu County, Hawaii, 96712, United States"
Leftovers Surfing Support Park,21.627856,-158.073597,City & County of Honolulu,City & County of Honolulu,Vertical and Horizontal,Rocky,Rock,No,No,No,Yes,No,No,No,Leftovers Surfing Support Park,The Following Are Prohibited...,"Kamehameha Highway, Kapaeloa, Honolulu County, Hawaii, 96712, United States"
Kawailoa Beach Park,21.622744,-158.080178,City & County of Honolulu,City & County of Honolulu,Vertical and Horizontal,Sand,Sand,Yes,No,No,Yes,No,No,Yes,Kawailoa Beach Park,The Following Are Prohibited...,"Kamehameha Highway, Kapaeloa, Honolulu County, Hawaii, 96712, United States"
Chuns Reef Support Beach Park,21.621342,-158.082242,BP Bishop Trust Estate,City & County of Honolulu,Vertical and Horizontal,Rocky,Sand,No,No,No,Yes,No,No,Yes,Chuns Reef Support Beach Park,The Following Are Prohibited...,"Chuns Reef wave, Kamehameha Highway, Kapaeloa, Honolulu County, Hawaii, 96712, United States"
Laniakea Beach Support Park,21.617886,-158.085894,Multiple owners,City & County of Honolulu,Vertical and Horizontal,Sand,Sand,No,No,No,Yes,No,No,No,Laniakea Support Beach Park,The Following Are Prohibited...,"Laniakea Bay (turtle bay), Kamehameha Highway, Kapaeloa, Honolulu County, Hawaii, 96712, United States"
Papailoa Road,21.61245,-158.094117,Multiple owners,City & County of Honolulu,Vertical and Horizontal,Sand,Sand,No,No,No,Yes,No,No,No,Papailoa Road,"269A, Public Right Of Way To Beach","Papailoa Road, Honolulu County, Hawaii, 96712, United States"
Hale'iwa Beach Park,21.598619,-158.103398,City & County of Honolulu,City & County of Honolulu,Vertical and Horizontal,Sand,Sand,Yes,Yes,Yes,Yes,Yes,Yes,Yes,Hale'iwa  Beach Park (East),Various,"2567, Kamehameha Highway, Old Town Haleʻiwa, Haleiwa, Honolulu County, Hawaii, 96712, United States"
Hale'iwa Harbor,21.59346,-158.105666,State of Hawaii,State of Hawaii,Vertical and Horizontal,Paved,Rock,Yes,No,No,Yes,Yes,Yes,No,Hale'iwa Harbor,Various,"Haleiwa Boat Harbor, Naoiwi Lane, Old Town Haleʻiwa, Haleiwa, Honolulu County, Hawaii, 96712, United States"
Hale'iwa Ali'i Beach Park (West),21.590603,-158.110256,City & County of Honolulu,City & County of Honolulu,Vertical and Horizontal,Grass,Sand,Yes,Yes,Yes,Yes,Yes,No,Yes,Ali'i Beach,Hale'Iwa Ali'I Beach Park,"Kamani Lane, Old Town Haleʻiwa, Haleiwa, Honolulu County, Hawaii, 96712, United States"
Pikai C,21.5887,-158.1124,State of Hawaii,State of Hawaii,Vertical and Horizontal,Sand,Sand,No,No,No,No,No,No,No,Pikai C,No Parking,"Pikai Street, Haleiwa, Honolulu County, Hawaii, 96712, United States"
Pikai B,21.588508,-158.114025,State of Hawaii,State of Hawaii,Vertical and Horizontal,Sand,Sand,No,No,No,No,No,No,No,Pikai B,No Parking,"Pikai Street, Haleiwa, Honolulu County, Hawaii, 96712, United States"
Pikai A,21.588724,-158.115577,State of Hawaii,State of Hawaii,Vertical and Horizontal,Sand,Sand,No,No,No,No,No,No,No,Pikai A,No Parking,"Pikai Street, Haleiwa, Honolulu County, Hawaii, 96712, United States"
Kaiaka Bay Beach Park,21.582583,-158.124545,City & County of Honolulu,City & County of Honolulu,Vertical and Horizontal,Grass,Sand,Yes,Yes,Yes,Yes,Yes,No,No,Kaiaka Bay Beach Park,Kaiaka Bay Beach Park,"Kahaone Place, Waialua, Honolulu County, Hawaii, 96791, United States"
‘Aweoweo Beach Park,21.583465,-158.137508,City & County of Honolulu,City & County of Honolulu,Vertical and Horizontal,Sand,Sand,Yes,Yes,Yes,Yes,Yes,Unknown,No,‘Aweoweo Beach Park,‘Aweoweo Beach Park,"Apuhihi Street, Mokuleia, Waialua, Mokuleia, Honolulu County, Hawaii, 96791, United States"
Au Street (West) B,21.583217,-158.140139,"Kumura, Stanley S/Kumura, Aimee I",City access easement,Vertical and Horizontal,Grass,Sand,No,No,No,No,No,No,No,Au Street (West) B,258A,"Au Street, Mokuleia, Waialua, Mokuleia, Honolulu County, Hawaii, 96791, United States"
Au Street (East) A,21.582502,-158.14283,Various Owners,City access easement,Vertical and Horizontal,Grass,Sand,No,No,No,No,No,No,No,Au Street (East) A,"239A, Public Right Of Way To Beach","Au Street, Mokuleia, Waialua, Mokuleia, Honolulu County, Hawaii, 96791, United States"
Crozier Drive,21.579752,-158.155196,Various Owners,City access easement,Vertical and Horizontal,Sand,Sand,No,No,No,Yes,No,No,No,Crozier Drive,"257A, The Following Are Prohibited...","Crozier Drive, Mokuleia, Waialua, Mokuleia, Honolulu County, Hawaii, 96791, United States"
Makaleha Beach Park,21.57683,-158.165436,City & County of Honolulu,City & County of Honolulu,Vertical and Horizontal,Sand,Sand,No,No,No,Yes,No,No,No,Makaleha Beach Right of Way,Public Right Of Way To Beach,"Polo Beach Access Path, Mokuleia, Honolulu County, Hawaii, 96791, United States"
Ho'omana Place Beach Right of Way,21.579977,-158.17766,City & County of Honolulu,City & County of Honolulu,Vertical and Horizontal,Grass,Sand,No,No,No,No,No,No,No,Hoomana Beach,Hoomana Beach Beach Right Of Way,"Hoomana Place, Mokuleia, Honolulu County, Hawaii, 96791, United States"
Mokule‘ia Beach Park,21.581363,-158.193425,City & County of Honolulu,City & County of Honolulu,Vertical and Horizontal,Grass,Sand,Yes,Yes,Yes,Yes,Yes,No,No,Mokule‘ia,The Following Are Prohibited...,"Farrington Highway, Mokuleia, Honolulu County, Hawaii, 96791, United States"
Dillingham Airfield,21.581169,-158.208764,United States of America,United States of America,Vertical and Horizontal,Sand,Sand,No,No,No,No,No,No,No,Army Beach,Various,"Farrington Highway, Mokuleia, Honolulu County, Hawaii, 96791, United States"
Ka'ena  Point State Park Reserve,21.579666,-158.237215,State of Hawaii DLNR State Parks Division,State of Hawaii DLNR State Parks Division,Vertical and Horizontal,Rocky,Rock,No,No,No,Yes,No,No,No,Ka'ena  Point State Park Reserve,Ka'ena Point State Park Reserve - Mokule‘ia  Section,"Farrington Highway, YMCA Camp Erdman - Summer Camp, Mokuleia, Honolulu County, Hawaii, United States"
Ka'ena Point State Park Keawa'ula Beach,21.548853,-158.241538,State of Hawaii,State of Hawaii,Vertical and Horizontal,Sand,Sand,Yes,Yes,No,Yes,Yes,No,Yes,Keawa'ula,Ka'ena Point State Park,"Farrington Highway, Honolulu County, Hawaii, United States"
Ka'ena Point State Park,21.536998,-158.230887,State of Hawaii,State of Hawaii,Vertical and Horizontal,Sand,Sand,No,No,No,Yes,No,No,No,,Ka'ena Pt - Makua Section,"Farrington Highway, Honolulu County, Hawaii, United States"
Kea'au Beach Park,21.488339,-158.229527,State of Hawaii,City & County of Honolulu,Vertical and Horizontal,Grass,Sand,Yes,Yes,Yes,Yes,Yes,Yes,No,,Kea'au Beach Park,"Farrington Highway, Makaha, Honolulu County, Hawaii, United States"
Makau Street B,21.48254,-158.230115,"Various, Capitol Investment Co Inc",City access easement,Vertical and Horizontal,Grass,Sand,No,No,No,No,No,No,No,Makua B Beach Right of Way,228A,"Makau Street, Makaha, Honolulu County, Hawaii, United States"
Makau Street A,21.479232,-158.226891,Various,City access easement,Vertical and Horizontal,Dirt,Rock,No,No,No,No,No,No,No,Makua A Beach Right of Way,227A,"Makau Street, Makaha, Honolulu County, Hawaii, United States"
Makaha Beach Park,21.478689,-158.221967,City & County of Honolulu,City & County of Honolulu,Vertical and Horizontal,Sand,Sand,Yes,Yes,Yes,Yes,Yes,Yes,Yes,Mahaha  Beach Park,Mahaha  Beach Park,"Mākaha beach, Farrington Highway, Makaha, Honolulu County, Hawaii, 96792, United States"
Upena Street,21.473445,-158.218774,Various Owners,Various Owners,Vertical and Horizontal,Sand,Sand,No,No,No,No,No,No,No,Upena Street,"226A, Public Right Of Way To Beach","84768, Upena Street, Makaha, Honolulu County, Hawaii, 96792, United States"
Upena Street,21.471365,-158.218156,Various Owners,Various Owners,Vertical and Horizontal,Dirt,Rock,No,No,No,No,No,No,No,Upena Street,Public Right Of Way To Beach,"Upena Street, Makaha, Honolulu County, Hawaii, United States"
Moua Street,21.46571,-158.215251,City & County of Honolulu,City & County of Honolulu,Vertical and Horizontal,Rocky,Rock,No,No,No,No,No,No,No,Moua Street,"225A, Public Right Of Way To Beach","Moua Street, Makaha, Honolulu County, Hawaii, 96792, United States"
Mauna Lahilahi Cultural Garden,21.461157,-158.21094,City & County of Honolulu,City & County of Honolulu,Vertical and Horizontal,Dirt and Sand,"Rock, Cliff",No,No,No,No,No,No,No,Mauna lahilahi Cultural GaRoaden,Notice Park Closed 10pm To 5am,"Lahilahi Place, Makaha, Honolulu County, Hawaii, 96792, United States"
Mauna Lahilahi Beach Park,21.460735,-158.208144,State of Hawaii and City & County of Honolulu,City & County of Honolulu,Vertical and Horizontal,Grass,Sand,Yes,Yes,Yes,Yes,Yes,No,No,Mauna Lahilahi Beach Park,Mauna Lahilahi Beach Park,"84-1160, Farrington Highway, Waianae, Honolulu County, Hawaii, 96792, United States"
Wai'anae District Park,21.449508,-158.196735,State of Hawaii and City & County of Honolulu,City & County of Honolulu,Vertical and Horizontal,Paved,Rock,Yes,No,Yes,Yes,Yes,Yes,No,Wai'anae Regional Park,Wai'anae Regional Park,"Wai`anae Small Boat Harbor, Farrington Highway, Waianae, Honolulu County, Hawaii, 96792, United States"
Poka‘i Bay Beach Park,21.441618,-158.189995,State of Hawaii,City & County of Honolulu,Vertical and Horizontal,Paved,Sand,Yes,Yes,Yes,Yes,Yes,Yes,Yes,Poka‘i Bay Beach Park,Poka‘i Bay Beach Park,"Pokai Bay Street, Waianae, Honolulu County, Hawaii, 96792, United States"
Lualualei Beach Park,21.432049,-158.183702,State of Hawaii,City & County of Honolulu,Vertical and Horizontal,Grass,Sand,Yes,Yes,Yes,Yes,No,Yes,No,Lualualei Beach Park,E Komo Mai Lualualei Beach Park,"Farrington Highway, Waianae, Honolulu County, Hawaii, 96792, United States"
Ulehawa Beach Park,21.4084,-158.1774,State of Hawaii and City & County of Honolulu,City & County of Honolulu,Vertical and Horizontal,Grass,Sand,Yes,Yes,Yes,Yes,Yes,Yes,Yes,Ma'ili Beach Park,Ma'Ili Beach Park,"Maipalaoa Road, Sea Country, Kapolei, Honolulu County, Hawaii, 96792, United States"
Ma'ili Beach Park,21.42155,-158.178033,State of Hawaii & City & County of Honolulu,City & County of Honolulu,Vertical and Horizontal,Grass,Sand,Yes,Yes,Yes,Yes,Yes,No,No,,,"Farrington Highway, Mā‘ili, Kapolei, Honolulu County, Hawaii, 96792, United States"
Nanakuli Beach Park,21.382041,-158.146621,State of Hawaii and City & County of Honolulu,City & County of Honolulu,Vertical and Horizontal,Grass,Sand,Yes,Yes,Yes,Yes,Yes,No,No,Nanakuli Beach Park,Nanakuli Beach Park,"Farrington Highway, Nanakuli, Honolulu County, Hawaii, United States"
Tracks Beach Park,21.360823,-158.131923,HECO,City & County of Honolulu,Vertical and Horizontal,Grass,Sand,Yes,Yes,No,Yes,Yes,No,No,Tracks Beach Park,Tracks,"Electric Beach, Farrington Highway, Kahe, Honolulu County, Hawaii, United States"
Kahe Point Beach Park,21.353161,-158.13036,City & County of Honolulu,City & County of Honolulu,Vertical and Horizontal,Grass,Rock,Yes,Yes,Yes,Yes,Yes,Yes,No,Kahe Point Beach Park,The Following Are Prohibited...,"Farrington Highway, Kahe, Honolulu County, Hawaii, 96707, United States"
Paradise Cove,21.342098,-158.12693,James Campbell Lanikuhonua Cult Ins…,Multiple operator-managers,Vertical and Horizontal,Sand,Sand,No,No,No,Yes,No,No,No,Paradise Cove,Various,"Ali'inui Drive, Kapolei, Honolulu County, Hawaii, 96707, United States"
Ko Olina Lagoon 1A,21.339193,-158.125107,Ihilani Hotel LLC,Ihilani Hotel LLC,Vertical and Horizontal,Paved,Sand,Yes,Yes,No,Yes,Yes,Yes,No,Kohola (Whale),Public Access,"Aulani, A Disney Resort & Spa, 92-1185, Ali'inui Drive, Kapolei, Honolulu County, Hawaii, 96707, United States"
Ko Olina Lagoon 1B,21.337143,-158.123696,Ko Olina Chapel LLC,Ko Olina Chapel LLC,Vertical and Horizontal,Paved,Sand,Yes,Yes,No,Yes,Yes,Yes,No,Kohola (Whale),Public Access,"Kamoana Place, Kapolei, Honolulu County, Hawaii, 96707, United States"
Ko Olina Lagoon 2,21.33543,-158.12298,TAT Ko Olina 25 LLC,TAT Ko Olina 25 LLC,Vertical and Horizontal,Sand,Sand,Yes,Yes,No,Yes,Yes,Yes,No,Honu (Turtle),Public Access,"Waiali'i Place, Kapolei, Honolulu County, Hawaii, 96707, United States"
Ko Olina Lagoon 3,21.332755,-158.121708,Marriot Ownership Resorts,Marriot Ownership Resorts,Vertical and Horizontal,Paved,Sand,Yes,Yes,No,Yes,Yes,Yes,No,Nai'a (Dolphin),Public Access,"Marriott's Ko Olina Beach Club, Mauloa Place, Kapolei, Honolulu County, Hawaii, 96707, United States"
Ko Olina Lagoon 4,21.327574,-158.121543,City & County of Honolulu (via agreement),Ko Olina Development LLC,Vertical and Horizontal,Paved,Sand,Yes,Yes,No,Yes,Yes,Yes,No,Ulua (Trevally),Public Access,"コオリナリゾートアクアマリーナ, Waipahe Place, Kapolei, Honolulu County, Hawaii, 96707, United States"
Ko Olina Beach Park,21.325792,-158.12248,Ko Olina Development LLC,Ko Olina Development LLC,Vertical and Horizontal,Paved,Sand,Yes,Yes,No,Yes,Yes,Yes,No,Ko Olina Beach Park,Public Access,"コオリナリゾートアクアマリーナ, Waipahe Place, Kapolei, Honolulu County, Hawaii, 96707, United States"
Kalaeloa,21.320621,-158.120327,James Campbell Company LLC,James Campbell Company LLC,Vertical and Horizontal,Paved,Rock,Yes,No,No,Yes,Yes,No,No,Barber's Point Harbor,Private Launch Ramp,"Camp Malakole Military Reservation, Malakole Street, Kapolei, Honolulu County, Hawaii, 96707, United States"
Camp Malakole,21.315594,-158.117854,Kenai Industrial Park Association,City & County of Honolulu,Vertical and Horizontal,Paved,"Sand, Rock",No,No,No,No,No,No,No,Camp Malakole,200A,"Camp Malakole Military Reservation, Malakole Street, Kapolei, Honolulu County, Hawaii, 96707, United States"
Barbers Point Beach Park,21.296795,-158.104433,City & County of Honolulu,City & County of Honolulu,Vertical and Horizontal,Grass,Sand,Yes,Yes,Yes,Yes,Yes,No,No,Barbers Point Beach Park,Barbers Point Beach Park,"Germaine's Luau, 91-119, Olai Street, Campbell Industrial Park, Kapolei, Honolulu County, Hawaii, 96707, United States"
Nimitz Beach,21.300298,-158.063488,United States of America,United States of America,Vertical and Horizontal,Sand,Sand,No,No,No,Yes,No,No,No,Nimitz Beach,The Following Are Prohibited...,"Coral Sea Street, Kalaeloa, Kapolei, Honolulu County, Hawaii, 96707, United States"
White Plains Beach,21.30413,-158.04541,United States of America,United States of America,Vertical and Horizontal,Paved,Sand,Yes,Yes,Yes,Yes,Yes,No,Yes,White Plains,Us Navy Property,"White Plains Beach Park, White Plains, Kapolei, Honolulu County, Hawaii, 96706, United States"
One'ula Beach Park,21.305695,-158.029753,City & County of Honolulu,City & County of Honolulu,Vertical and Horizontal,Sand,Sand,Yes,Yes,Yes,Yes,Yes,No,No,Hau Bush,One'Ula Beach Park,"Ewa Beach, Honolulu County, Hawaii, 96706, United States"
Pupu Place,21.306231,-158.021997,City & County of Honolulu,City & County of Honolulu,Vertical,Paved,Rock,No,No,No,No,No,No,No,Pupu Pl,,"Pupu Place, Ewa Beach, Honolulu County, Hawaii, 96706, United States"
Oneula Place,21.310083,-158.011027,City & County of Honolulu,City & County of Honolulu,Vertical and Horizontal,Sand,Sand,No,No,No,No,No,No,No,Oneula,"187A, Public Public Beach Right Of Way","One'ula Place, Ewa Beach, Honolulu County, Hawaii, 96706, United States"
Parish Drive,21.310722,-158.007133,City & County of Honolulu,City & County of Honolulu,Vertical and Horizontal,Sand,Sand,No,No,No,No,No,No,No,Parish Drive Beach Right of Way,"186J, Ewa Limu Management Area","Parish, Parish Drive, Ewa Beach, Honolulu County, Hawaii, 96706, United States"
Ewa Beach Rd. A,21.311381,-158.004651,City & County of Honolulu,City & County of Honolulu,Vertical and Horizontal,Sand,Sand,No,No,No,No,No,No,No,Ewa Beach Road A,"186I, Public Beach Right Of Way","Hapalua Street, Ewa Beach, Honolulu County, Hawaii, 96706, United States"
Ewa Beach Rd. B,21.311834,-158.00292,City & County of Honolulu,City & County of Honolulu,Vertical,Sand,Sand,No,No,No,No,No,No,No,Ewa Beach Road B (Mauka),"186G, Public Beach Right Of Way","Silva's Grocery & Liquor, 91-455, Ewa Beach Road, Ewa Beach, Honolulu County, Hawaii, 96706, United States"
Ewa Beach Rd. C,21.311834,-158.00292,City & County of Honolulu,City & County of Honolulu,Vertical and Horizontal,Sand,Sand,No,No,No,No,No,No,No,Ewa Beach Road C (Makai),"186H, Public Beach Right Of Way","Silva's Grocery & Liquor, 91-455, Ewa Beach Road, Ewa Beach, Honolulu County, Hawaii, 96706, United States"
Ewa Beach Rd. D,21.312164,-158.001148,City & County of Honolulu,City & County of Honolulu,Vertical,Sand,Sand,No,No,No,No,No,No,No,Ewa Beach Road D (Mauka),"186E, Public Beach Right Of Way","Ewa Beach Road, Ewa Beach, Honolulu County, Hawaii, 96706, United States"
Ewa Beach Rd. E,21.312164,-158.001148,City & County of Honolulu,City & County of Honolulu,Vertical and Horizontal,Sand,Sand,No,No,No,No,No,No,No,Ewa Beach Road E (Makai),"186F, Public Beach Right Of Way","Ewa Beach Road, Ewa Beach, Honolulu County, Hawaii, 96706, United States"
Ewa Beach Rd. F,21.312504,-157.999706,City & County of Honolulu,City & County of Honolulu,Vertical,Sand,Sand,No,No,No,No,No,No,No,Ewa Beach Road F (Mauka),"186C, Public Beach Right Of Way","Ewa Beach Road, Ewa Beach, Honolulu County, Hawaii, 96706, United States"
Ewa Beach Rd. G,21.312504,-157.999706,City & County of Honolulu,City & County of Honolulu,Vertical and Horizontal,Sand,Sand,No,No,No,No,No,No,No,Ewa Beach Road G (Makai),186D,"Ewa Beach Road, Ewa Beach, Honolulu County, Hawaii, 96706, United States"
Ewa Beach Rd. H,21.312885,-157.998264,City & County of Honolulu,City & County of Honolulu,Vertical,Sand,Sand,No,No,No,No,No,No,No,Ewa Beach Road H (Mauka),"186A, Public Beach Right Of Way","Ewa Beach Road, Ewa Beach, Honolulu County, Hawaii, 96706, United States"
Ewa Beach Rd. I,21.312885,-157.998264,City & County of Honolulu,City & County of Honolulu,Vertical and Horizontal,Sand,Sand,No,No,No,No,No,No,No,Ewa Beach Road I (Makai),"186B, Public Beach Right Of Way","Ewa Beach Road, Ewa Beach, Honolulu County, Hawaii, 96706, United States"
Ewa Beach Rd. J,21.313575,-157.99539,City & County of Honolulu,City & County of Honolulu,Vertical,Sand,Sand,No,No,No,No,No,No,No,Ewa Beach Road J (Mauka),185B,"Ewa Beach Road, Ewa Beach, Honolulu County, Hawaii, 96706, United States"
Ewa Beach Rd. K,21.313575,-157.99539,City & County of Honolulu,City & County of Honolulu,Vertical and Horizontal,Sand,Sand,No,No,No,No,No,No,No,Ewa Beach Road K (Makai),185C,"Ewa Beach Road, Ewa Beach, Honolulu County, Hawaii, 96706, United States"
Ewa Beach Rd. L,21.313905,-157.993989,City & County of Honolulu,City & County of Honolulu,Vertical and Horizontal,Paved,Sand,No,No,No,No,No,No,No,Ewa Beach Road L (Makai),"185A, Public Beach Right Of Way","Ewa Beach Road, Ewa Beach, Honolulu County, Hawaii, 96706, United States"
Ewa Beach Park,21.315007,-157.991672,City & County of Honolulu,City & County of Honolulu,Vertical and Horizontal,Grass,Sand,Yes,Yes,Yes,Yes,Yes,No,No,Ewa Beach Park,"Ewa Beach Park, Notice Parking Lot Closed 8pm To 5am","Fort Weaver Road, Iroquois Point, Ewa Beach, Honolulu County, Hawaii, 96706, United States"
Iriquois Point A,21.32334,-157.972317,United States of America,United States of America,Vertical and Horizontal,Grass,Sand,No,No,No,Yes,No,No,No,Iriquois Point A,Public Right Of Way To Beach,"5257, Iroquois Avenue, Iroquois Point, Ewa Beach, Honolulu County, Hawaii, 96706, United States"
West Loch Shoreline Park,21.366327,-158.021181,City & County of Honolulu,City & County of Honolulu,Vertical and Horizontal,Paved,Rock,Yes,No,No,Yes,Yes,Yes,No,West Lock Shoreline Park,Various,"Kapapapuhi Street, Waipahu, Honolulu County, Hawaii, 96797, United States"
Neil S Blaisdell Park,21.3861,-157.95546,City & County of Honolulu,City & County of Honolulu,Vertical and Horizontal,Grass,Rock,Yes,No,Yes,Yes,Yes,No,No,Pearl Harbor Park,Neil S Blaisdell Park,"Kaluamoi Drive, Waimalu, Honolulu, Waipahu, Honolulu County, Hawaii, 96701, United States"
Aiea Bay State Recreational Area,21.3774,-157.935722,State of Hawaii DLNR State Parks Division,State of Hawaii DLNR State Parks Division,Vertical and Horizontal,Grass,Rock,Yes,No,Yes,Yes,Yes,No,No,Aiea Bay State Recreational Area,Aiea Bay State Recreation Area,"Aiea, HI 78, Aiea, Honolulu County, Hawaii, 96701, United States"
Lagoon Drive,21.312547,-157.919825,State of Hawaii DOT Airports Division,State of Hawaii DOT Airports Division,Vertical and Horizontal,Grass,"Rock, Cliff",No,No,No,No,No,No,No,Lagoon Drive,No Parking (Along Lagoon Dr.),"Lagoon Drive, Mapunapuna, Honolulu, Honolulu County, Hawaii, 96819, United States"
Island Seaplane,21.317786,-157.913139,State of Hawaii DOT Airports Division,State of Hawaii DOT Airports Division,Vertical and Horizontal,Grass,"Rock, Cliff",No,No,No,No,No,No,No,Island Seaplane,No Parking (Along Lagoon Dr.),"Lagoon Drive, Mapunapuna, Honolulu, Honolulu County, Hawaii, 96819, United States"
Lagoon Drive,21.324525,-157.904006,State of Hawaii DOT Airports Division,State of Hawaii DOT Airports Division,Vertical and Horizontal,Grass,"Rock, Cliff",No,No,No,No,No,No,No,Lagoon Drive,No Parking (Along Lagoon Dr.),"305, Lagoon Drive, Mapunapuna, Honolulu, Honolulu County, Hawaii, 96819, United States"
Ke'ehi Lagoon Park,21.330511,-157.898592,State of Hawaii,City & County of Honolulu,Vertical and Horizontal,Grass,"Sand, Rock",Yes,Yes,Yes,Yes,Yes,Yes,No,Ke'ehi Lagoon Beach Park,Ke'ehi Lagoon Beach Park,"Waiwai Loop, Mapunapuna, Honolulu, Honolulu County, Hawaii, 96819, United States"
Ke'ehi Boat Harbor,21.314547,-157.890608,State of Hawaii,State of Hawaii DLNR,Vertical and Horizontal,Paved,"Rock, Cliff",Yes,No,No,Yes,Yes,Yes,No,Ke'ehi Boat Harbor,Ke'ehi Boat Harbor,"Keʻehi Lagoon Harbor, 4, Sand Island Access Road, Kalihi Kai, Honolulu, Honolulu County, Hawaii, 96819, United States"
Sand Island Launch Ramp Facility,21.311697,-157.889469,State of Hawaii,State of Hawaii DLNR,Vertical and Horizontal,Grass,"Sand, Rock",Yes,No,Yes,Yes,Yes,Yes,No,Sand Island Launch Ramp Facility,Sand Island Launch Ramp Facility,"Marine education and trainingcenter, Sand Island Parkway, Sand Island, Honolulu, Honolulu County, Hawaii, 96830, United States"
Sand Island State Recreation Area,21.302003,-157.878636,State of Hawaii DOT Harbors Division,State of Hawaii DLNR,Vertical and Horizontal,Grass,"Sand, Rock, Cliff",Yes,Yes,Yes,Yes,Yes,No,No,Sand Island State Recreation Area,Sand Island State Park,"Sand Island Softball Field, Mikole Street, Sand Island, Honolulu, Honolulu County, Hawaii, 96850, United States"
